<?xml version="1.0" encoding="UTF-8"?>
<ndm xmlns:xsi="http://www.w3.org/2001/XMLSchema-instance" xsi:noNamespaceSchemaLocation="https://sanaregistry.org/r/ndmxml_unqualified/ndmxml-2.0.0-master-2.0.xsd">
<omm id="CCSDS_OMM_VERS" version="2.0">
<header><CREATION_DATE/><ORIGINATOR/></header><body><segment><metadata><OBJECT_NAME>ONEWEB-0386</OBJECT_NAME><OBJECT_ID>2021-090AK</OBJECT_ID><CENTER_NAME>EARTH</CENTER_NAME><REF_FRAME>TEME</REF_FRAME><TIME_SYSTEM>UTC</TIME_SYSTEM><MEAN_ELEMENT_THEORY>SGP4</MEAN_ELEMENT_THEORY></metadata><data><meanElements><EPOCH>2025-03-20T07:06:34.538112</EPOCH><MEAN_MOTION>13.20773876</MEAN_MOTION><ECCENTRICITY>.0002006</ECCENTRICITY><INCLINATION>87.9328</INCLINATION><RA_OF_ASC_NODE>4.7632</RA_OF_ASC_NODE><ARG_OF_PERICENTER>85.7438</ARG_OF_PERICENTER><MEAN_ANOMALY>274.3924</MEAN_ANOMALY></meanElements><tleParameters><EPHEMERIS_TYPE>0</EPHEMERIS_TYPE><CLASSIFICATION_TYPE>U</CLASSIFICATION_TYPE><NORAD_CAT_ID>49312</NORAD_CAT_ID><ELEMENT_SET_NO>999</ELEMENT_SET_NO><REV_AT_EPOCH>16990</REV_AT_EPOCH><BSTAR>.2387E-4</BSTAR><MEAN_MOTION_DOT>.23E-6</MEAN_MOTION_DOT><MEAN_MOTION_DDOT>0</MEAN_MOTION_DDOT></tleParameters></data></segment></body></omm>
<omm id="CCSDS_OMM_VERS" version="2.0">
<header><CREATION_DATE/><ORIGINATOR/></header><body><segment><metadata><OBJECT_NAME>ONEWEB-0387</OBJECT_NAME><OBJECT_ID>2021-090AL</OBJECT_ID><CENTER_NAME>EARTH</CENTER_NAME><REF_FRAME>TEME</REF_FRAME><TIME_SYSTEM>UTC</TIME_SYSTEM><MEAN_ELEMENT_THEORY>SGP4</MEAN_ELEMENT_THEORY></metadata><data><meanElements><EPOCH>2025-03-20T06:43:49.628064</EPOCH><MEAN_MOTION>13.20774977</MEAN_MOTION><ECCENTRICITY>.0001598</ECCENTRICITY><INCLINATION>87.9319</INCLINATION><RA_OF_ASC_NODE>4.8372</RA_OF_ASC_NODE><ARG_OF_PERICENTER>85.8417</ARG_OF_PERICENTER><MEAN_ANOMALY>274.2899</MEAN_ANOMALY></meanElements><tleParameters><EPHEMERIS_TYPE>0</EPHEMERIS_TYPE><CLASSIFICATION_TYPE>U</CLASSIFICATION_TYPE><NORAD_CAT_ID>49313</NORAD_CAT_ID><ELEMENT_SET_NO>999</ELEMENT_SET_NO><REV_AT_EPOCH>16990</REV_AT_EPOCH><BSTAR>.49709E-3</BSTAR><MEAN_MOTION_DOT>.215E-5</MEAN_MOTION_DOT><MEAN_MOTION_DDOT>0</MEAN_MOTION_DDOT></tleParameters></data></segment></body></omm>
<omm id="CCSDS_OMM_VERS" version="2.0">
<header><CREATION_DATE/><ORIGINATOR/></header><body><segment><metadata><OBJECT_NAME>ONEWEB-0388</OBJECT_NAME><OBJECT_ID>2021-090AM</OBJECT_ID><CENTER_NAME>EARTH</CENTER_NAME><REF_FRAME>TEME</REF_FRAME><TIME_SYSTEM>UTC</TIME_SYSTEM><MEAN_ELEMENT_THEORY>SGP4</MEAN_ELEMENT_THEORY></metadata><data><meanElements><EPOCH>2025-03-20T10:00:20.106432</EPOCH><MEAN_MOTION>13.19725982</MEAN_MOTION><ECCENTRICITY>.0001958</ECCENTRICITY><INCLINATION>87.9224</INCLINATION><RA_OF_ASC_NODE>35.1664</RA_OF_ASC_NODE><ARG_OF_PERICENTER>83.4231</ARG_OF_PERICENTER><MEAN_ANOMALY>276.7124</MEAN_ANOMALY></meanElements><tleParameters><EPHEMERIS_TYPE>0</EPHEMERIS_TYPE><CLASSIFICATION_TYPE>U</CLASSIFICATION_TYPE><NORAD_CAT_ID>49314</NORAD_CAT_ID><ELEMENT_SET_NO>999</ELEMENT_SET_NO><REV_AT_EPOCH>16656</REV_AT_EPOCH><BSTAR>.11671E-3</BSTAR><MEAN_MOTION_DOT>.6E-6</MEAN_MOTION_DOT><MEAN_MOTION_DDOT>0</MEAN_MOTION_DDOT></tleParameters></data></segment></body></omm>
<omm id="CCSDS_OMM_VERS" version="2.0">
<header><CREATION_DATE/><ORIGINATOR/></header><body><segment><metadata><OBJECT_NAME>ONEWEB-0389</OBJECT_NAME><OBJECT_ID>2021-132A</OBJECT_ID><CENTER_NAME>EARTH</CENTER_NAME><REF_FRAME>TEME</REF_FRAME><TIME_SYSTEM>UTC</TIME_SYSTEM><MEAN_ELEMENT_THEORY>SGP4</MEAN_ELEMENT_THEORY></metadata><data><meanElements><EPOCH>2025-03-20T13:20:41.508672</EPOCH><MEAN_MOTION>13.17647530</MEAN_MOTION><ECCENTRICITY>.0001779</ECCENTRICITY><INCLINATION>87.9004</INCLINATION><RA_OF_ASC_NODE>96.2311</RA_OF_ASC_NODE><ARG_OF_PERICENTER>104.5792</ARG_OF_PERICENTER><MEAN_ANOMALY>255.5537</MEAN_ANOMALY></meanElements><tleParameters><EPHEMERIS_TYPE>0</EPHEMERIS_TYPE><CLASSIFICATION_TYPE>U</CLASSIFICATION_TYPE><NORAD_CAT_ID>50469</NORAD_CAT_ID><ELEMENT_SET_NO>999</ELEMENT_SET_NO><REV_AT_EPOCH>15834</REV_AT_EPOCH><BSTAR>.60638E-5</BSTAR><MEAN_MOTION_DOT>.15E-6</MEAN_MOTION_DOT><MEAN_MOTION_DDOT>0</MEAN_MOTION_DDOT></tleParameters></data></segment></body></omm>
<omm id="CCSDS_OMM_VERS" version="2.0">
<header><CREATION_DATE/><ORIGINATOR/></header><body><segment><metadata><OBJECT_NAME>ONEWEB-0390</OBJECT_NAME><OBJECT_ID>2021-132B</OBJECT_ID><CENTER_NAME>EARTH</CENTER_NAME><REF_FRAME>TEME</REF_FRAME><TIME_SYSTEM>UTC</TIME_SYSTEM><MEAN_ELEMENT_THEORY>SGP4</MEAN_ELEMENT_THEORY></metadata><data><meanElements><EPOCH>2025-03-20T13:23:08.997792</EPOCH><MEAN_MOTION>13.17649449</MEAN_MOTION><ECCENTRICITY>.0001632</ECCENTRICITY><INCLINATION>87.9006</INCLINATION><RA_OF_ASC_NODE>96.2375</RA_OF_ASC_NODE><ARG_OF_PERICENTER>86.7603</ARG_OF_PERICENTER><MEAN_ANOMALY>273.3715</MEAN_ANOMALY></meanElements><tleParameters><EPHEMERIS_TYPE>0</EPHEMERIS_TYPE><CLASSIFICATION_TYPE>U</CLASSIFICATION_TYPE><NORAD_CAT_ID>50470</NORAD_CAT_ID><ELEMENT_SET_NO>999</ELEMENT_SET_NO><REV_AT_EPOCH>15834</REV_AT_EPOCH><BSTAR>.23131E-3</BSTAR><MEAN_MOTION_DOT>.103E-5</MEAN_MOTION_DOT><MEAN_MOTION_DDOT>0</MEAN_MOTION_DDOT></tleParameters></data></segment></body></omm>
<omm id="CCSDS_OMM_VERS" version="2.0">
<header><CREATION_DATE/><ORIGINATOR/></header><body><segment><metadata><OBJECT_NAME>ONEWEB-0391</OBJECT_NAME><OBJECT_ID>2021-132C</OBJECT_ID><CENTER_NAME>EARTH</CENTER_NAME><REF_FRAME>TEME</REF_FRAME><TIME_SYSTEM>UTC</TIME_SYSTEM><MEAN_ELEMENT_THEORY>SGP4</MEAN_ELEMENT_THEORY></metadata><data><meanElements><EPOCH>2025-03-20T13:25:33.933792</EPOCH><MEAN_MOTION>13.17651097</MEAN_MOTION><ECCENTRICITY>.0001414</ECCENTRICITY><INCLINATION>87.9013</INCLINATION><RA_OF_ASC_NODE>96.2433</RA_OF_ASC_NODE><ARG_OF_PERICENTER>118.2358</ARG_OF_PERICENTER><MEAN_ANOMALY>241.8917</MEAN_ANOMALY></meanElements><tleParameters><EPHEMERIS_TYPE>0</EPHEMERIS_TYPE><CLASSIFICATION_TYPE>U</CLASSIFICATION_TYPE><NORAD_CAT_ID>50471</NORAD_CAT_ID><ELEMENT_SET_NO>999</ELEMENT_SET_NO><REV_AT_EPOCH>15834</REV_AT_EPOCH><BSTAR>.65203E-4</BSTAR><MEAN_MOTION_DOT>.38E-6</MEAN_MOTION_DOT><MEAN_MOTION_DDOT>0</MEAN_MOTION_DDOT></tleParameters></data></segment></body></omm>
<omm id="CCSDS_OMM_VERS" version="2.0">
<header><CREATION_DATE/><ORIGINATOR/></header><body><segment><metadata><OBJECT_NAME>ONEWEB-0392</OBJECT_NAME><OBJECT_ID>2021-132D</OBJECT_ID><CENTER_NAME>EARTH</CENTER_NAME><REF_FRAME>TEME</REF_FRAME><TIME_SYSTEM>UTC</TIME_SYSTEM><MEAN_ELEMENT_THEORY>SGP4</MEAN_ELEMENT_THEORY></metadata><data><meanElements><EPOCH>2025-03-20T12:19:57.688032</EPOCH><MEAN_MOTION>13.17650025</MEAN_MOTION><ECCENTRICITY>.0001758</ECCENTRICITY><INCLINATION>87.8999</INCLINATION><RA_OF_ASC_NODE>96.2126</RA_OF_ASC_NODE><ARG_OF_PERICENTER>105.0530</ARG_OF_PERICENTER><MEAN_ANOMALY>255.0796</MEAN_ANOMALY></meanElements><tleParameters><EPHEMERIS_TYPE>0</EPHEMERIS_TYPE><CLASSIFICATION_TYPE>U</CLASSIFICATION_TYPE><NORAD_CAT_ID>50472</NORAD_CAT_ID><ELEMENT_SET_NO>999</ELEMENT_SET_NO><REV_AT_EPOCH>15837</REV_AT_EPOCH><BSTAR>-.77677E-5</BSTAR><MEAN_MOTION_DOT>.1E-6</MEAN_MOTION_DOT><MEAN_MOTION_DDOT>0</MEAN_MOTION_DDOT></tleParameters></data></segment></body></omm>
<omm id="CCSDS_OMM_VERS" version="2.0">
<header><CREATION_DATE/><ORIGINATOR/></header><body><segment><metadata><OBJECT_NAME>ONEWEB-0393</OBJECT_NAME><OBJECT_ID>2021-132E</OBJECT_ID><CENTER_NAME>EARTH</CENTER_NAME><REF_FRAME>TEME</REF_FRAME><TIME_SYSTEM>UTC</TIME_SYSTEM><MEAN_ELEMENT_THEORY>SGP4</MEAN_ELEMENT_THEORY></metadata><data><meanElements><EPOCH>2025-03-20T13:30:37.707552</EPOCH><MEAN_MOTION>13.17650338</MEAN_MOTION><ECCENTRICITY>.000181</ECCENTRICITY><INCLINATION>87.9010</INCLINATION><RA_OF_ASC_NODE>96.2072</RA_OF_ASC_NODE><ARG_OF_PERICENTER>99.1182</ARG_OF_PERICENTER><MEAN_ANOMALY>261.0155</MEAN_ANOMALY></meanElements><tleParameters><EPHEMERIS_TYPE>0</EPHEMERIS_TYPE><CLASSIFICATION_TYPE>U</CLASSIFICATION_TYPE><NORAD_CAT_ID>50473</NORAD_CAT_ID><ELEMENT_SET_NO>999</ELEMENT_SET_NO><REV_AT_EPOCH>15837</REV_AT_EPOCH><BSTAR>.73011E-4</BSTAR><MEAN_MOTION_DOT>.41E-6</MEAN_MOTION_DOT><MEAN_MOTION_DDOT>0</MEAN_MOTION_DDOT></tleParameters></data></segment></body></omm>
<omm id="CCSDS_OMM_VERS" version="2.0">
<header><CREATION_DATE/><ORIGINATOR/></header><body><segment><metadata><OBJECT_NAME>ONEWEB-0394</OBJECT_NAME><OBJECT_ID>2021-132F</OBJECT_ID><CENTER_NAME>EARTH</CENTER_NAME><REF_FRAME>TEME</REF_FRAME><TIME_SYSTEM>UTC</TIME_SYSTEM><MEAN_ELEMENT_THEORY>SGP4</MEAN_ELEMENT_THEORY></metadata><data><meanElements><EPOCH>2025-03-20T12:11:44.675808</EPOCH><MEAN_MOTION>13.18687685</MEAN_MOTION><ECCENTRICITY>.0001893</ECCENTRICITY><INCLINATION>87.9065</INCLINATION><RA_OF_ASC_NODE>65.6375</RA_OF_ASC_NODE><ARG_OF_PERICENTER>89.2961</ARG_OF_PERICENTER><MEAN_ANOMALY>270.8388</MEAN_ANOMALY></meanElements><tleParameters><EPHEMERIS_TYPE>0</EPHEMERIS_TYPE><CLASSIFICATION_TYPE>U</CLASSIFICATION_TYPE><NORAD_CAT_ID>50474</NORAD_CAT_ID><ELEMENT_SET_NO>999</ELEMENT_SET_NO><REV_AT_EPOCH>16180</REV_AT_EPOCH><BSTAR>.23729E-3</BSTAR><MEAN_MOTION_DOT>.106E-5</MEAN_MOTION_DOT><MEAN_MOTION_DDOT>0</MEAN_MOTION_DDOT></tleParameters></data></segment></body></omm>

</ndm>
